ONEWEB-0492             
1 54114U 22138B   25210.93849566  .00000050  00000+0  92727-4 0  9996
2 54114  87.9229   9.0310 0001805  86.9946 273.1394 13.19725612134333
ONEWEB-0495             
1 54115U 22138C   25210.91635841  .00000068  00000+0  13862-3 0  9995
2 54115  87.9230   9.0467 0002431  83.2287 276.9123 13.19724027134311
ONEWEB-0497             
1 54116U 22138D   25210.85318498  .00000064  00000+0  12751-3 0  9997
2 54116  87.9233   9.0309 0001910  91.8649 268.2702 13.19726600134291
ONEWEB-0499             
1 54117U 22138E   25210.91164642  .00000020  00000+0  16590-4 0  9993
2 54117  87.9230   9.0383 0002149  98.4679 261.6697 13.19724887134310
ONEWEB-0500             
1 54118U 22138F   25210.91478954 -.00000004  00000+0 -42438-4 0  9992
2 54118  87.9234   9.0217 0001803  93.0551 267.0788 13.19726268134324
ONEWEB-0501             
1 54119U 22138G   25210.94481337  .00000019  00000+0  16250-4 0  9992
2 54119  87.9233   9.0087 0002228  88.4949 271.6439 13.19724539134301
ONEWEB-0502             
1 54120U 22138H   25210.85477730  .00000045  00000+0  81270-4 0  9999
2 54120  87.9232   9.0102 0002142  93.3806 266.7571 13.19725163134319
ONEWEB-0503             
1 54121U 22138J   25210.84371273  .00000037  00000+0  59937-4 0  9990
2 54121  87.9231   9.0170 0001970 103.0130 257.1223 13.19726047134300
